FENGYUN 3D              
1 43010U 17072A   26168.85210832 -.00000154  00000+0 -51173-4 0  9999
2 43010  99.0125 143.2866 0002546  61.4566 298.6865 14.19738501445085
NOAA 20 (JPSS-1)        
1 43013U 17073A   26168.77668443  .00000042  00000+0  40771-4 0  9995
2 43013  98.7770 108.2340 0000299 101.6451 258.4759 14.19511809444558
GOES 17                 
1 43226U 18022A   26168.80784095 -.00000188  00000+0  00000+0 0  9990
2 43226   0.9395  85.6996 0000444  29.8966 351.7667  1.00269625 30436
SENTINEL-3B             
1 43437U 18039A   26168.82087780  .00000085  00000+0  52992-4 0  9998
2 43437  98.6248 236.3440 0000723  90.0659 270.0604 14.26734886424214
FENGYUN 2H              
1 43491U 18050A   26168.84123735 -.00000136  00000+0  00000+0 0  9990
2 43491   3.0331  79.0630 0001970 138.6595  70.6119  1.00269473 29447
METOP-C                 
1 43689U 18087A   26168.77192110  .00000088  00000+0  60255-4 0  9992
2 43689  98.6645 228.3649 0001785 128.7330 231.4007 14.21512296394915
GEO-KOMPSAT-2A          
1 43823U 18100A   26168.85094405 -.00000349  00000+0  00000+0 0  9993
2 43823   0.0511 159.8127 0001810 288.0823 252.8033  1.00269506 27633
METEOR-M2 2             
1 44387U 19038A   26168.80664193  .00000063  00000+0  47124-4 0  9997
2 44387  98.9140 156.1012 0002055  47.0713 313.0638 14.24365985361381
ARKTIKA-M 1             
1 47719U 21016A   26168.49069990 -.00000210  00000+0  00000+0 0  9999
2 47719  63.2922  57.5948 7288528 269.9420  14.6012  2.00622504 38796
FENGYUN 3E              
1 49008U 21062A   26168.83589880  .00000107  00000+0  71054-4 0  9992
2 49008  98.7487 172.2365 0002836  85.1427 275.0073 14.19904762256671
GOES 18                 
1 51850U 22021A   26168.79813424  .00000091  00000+0  00000+0 0  9995
2 51850   0.0198 176.3163 0000321 336.8447 263.2028  1.00270613  6590
NOAA 21 (JPSS-2)        
1 54234U 22150A   26168.80956441  .00000033  00000+0  36059-4 0  9990
2 54234  98.7059 107.5884 0001707 152.4473 207.6794 14.19565527186636
METEOSAT-12 (MTG-I1)    
1 54743U 22170C   26168.82549073 -.00000014  00000+0  00000+0 0  9990
2 54743   0.7394  23.1170 0003195  71.1853 108.5395  1.00272787 12980
TIANMU-1 03             
1 55973U 23039A   26168.82623297  .00013149  00000+0  25948-3 0  9996
2 55973  97.5233 342.8198 0004181  97.1155 263.0570 15.47300177180936
TIANMU-1 04             
1 55974U 23039B   26168.81546284  .00013395  00000+0  25886-3 0  9990
2 55974  97.5169 341.9624 0004846  94.2333 265.9471 15.47898586180941
TIANMU-1 05             
1 55975U 23039C   26168.80702648  .00012297  00000+0  24344-3 0  9996
2 55975  97.5216 342.4144 0003992 113.6342 246.5327 15.47226423180912
TIANMU-1 06             
1 55976U 23039D   26168.81888032  .00012985  00000+0  25186-3 0  9999
2 55976  97.5221 343.0633 0004377 109.2462 250.9261 15.47802123180947
FENGYUN 3G              
1 56232U 23055A   26168.87876837  .00020848  00000+0  33801-3 0  9999
2 56232  49.9937 342.4568 0007006 299.2797  60.7469 15.52656975180115
METEOR-M2 3             
1 57166U 23091A   26168.87135682 -.00000096  00000+0 -23177-4 0  9993
2 57166  98.6099 223.8356 0004342 153.9499 206.1899 14.24046768154614
TIANMU-1 07             
1 57399U 23101A   26168.81964405  .00005247  00000+0  18427-3 0  9992
2 57399  97.2587 219.4735 0004126 120.1234 240.0417 15.29814247161740
TIANMU-1 08             
1 57400U 23101B   26168.85169380  .00005061  00000+0  17775-3 0  9997
2 57400  97.2576 219.2754 0005599 113.3974 246.7857 15.29819087161748
TIANMU-1 09             
1 57401U 23101C   26168.83509512  .00005306  00000+0  18609-3 0  9990
2 57401  97.2534 218.6746 0004613 125.1320 235.0353 15.29850396161749
TIANMU-1 10             
1 57402U 23101D   26168.86815819  .00005352  00000+0  18779-3 0  9993
2 57402  97.2613 219.7581 0006189 124.4303 235.7524 15.29822240161744
FENGYUN 3F              
1 57490U 23111A   26168.81980198  .00000031  00000+0  35184-4 0  9998
2 57490  98.6836 238.8167 0001593  93.0200 267.1158 14.19939181148957
ARKTIKA-M 2             
1 58584U 23198A   26160.78386103  .00000212  00000+0  00000+0 0  9997
2 58584  63.2205 155.1874 6900401 267.4353  18.7899  2.00606537 18179
TIANMU-1 11             
1 58645U 23205A   26168.83986494  .00004396  00000+0  16849-3 0  9996
2 58645  97.3442 190.3865 0008877  14.9344 345.2155 15.27001493137622
TIANMU-1 12             
1 58646U 23205B   26168.81024544  .00004698  00000+0  18014-3 0  9995
2 58646  97.3431 190.1130 0006648   1.5794 358.5465 15.26966062137609
TIANMU-1 13             
1 58647U 23205C   26168.84248612  .00004538  00000+0  17490-3 0  9993
2 58647  97.3458 190.4174 0005836 338.8994  21.2003 15.26819750137609
TIANMU-1 14             
1 58648U 23205D   26168.82767346  .00004577  00000+0  17609-3 0  9997
2 58648  97.3394 189.5841 0006800 343.1560  16.9452 15.26864387137604
TIANMU-1 19             
1 58660U 23208A   26168.80964167  .00006711  00000+0  22261-3 0  9994
2 58660  97.4511 285.1122 0003773 325.6390  34.4607 15.31582033137425
TIANMU-1 20             
1 58661U 23208B   26168.84695344  .00006551  00000+0  20942-3 0  9993
2 58661  97.4452 285.7858 0005964 331.1416  28.9496 15.32773136137529
