OBJECT_NAME,OBJECT_ID,EPOCH,MEAN_MOTION,ECCENTRICITY,INCLINATION,RA_OF_ASC_NODE,ARG_OF_PERICENTER,MEAN_ANOMALY,EPHEMERIS_TYPE,CLASSIFICATION_TYPE,NORAD_CAT_ID,ELEMENT_SET_NO,REV_AT_EPOCH,BSTAR,MEAN_MOTION_DOT,MEAN_MOTION_DDOT
FENGYUN 3D,2017-072A,2026-06-17T20:27:02.158848,14.19738501,.0002546,99.0125,143.2866,61.4566,298.6865,0,U,43010,999,44508,-.51173E-4,-.154E-5,0
NOAA 20 (JPSS-1),2017-073A,2026-06-17T18:38:25.534752,14.19511809,.0000299,98.7770,108.2340,101.6451,258.4759,0,U,43013,999,44455,.40771E-4,.42E-6,0
GOES 17,2018-022A,2026-06-17T19:23:17.458080,1.00269625,.0000444,0.9395,85.6996,29.8966,351.7667,0,U,43226,999,3043,0,-.188E-5,0
SENTINEL-3B,2018-039A,2026-06-17T19:42:03.841920,14.26734886,.0000723,98.6248,236.3440,90.0659,270.0604,0,U,43437,999,42421,.52992E-4,.85E-6,0
FENGYUN 2H,2018-050A,2026-06-17T20:11:22.907040,1.00269473,.000197,3.0331,79.0630,138.6595,70.6119,0,U,43491,999,2944,0,-.136E-5,0
METOP-C,2018-087A,2026-06-17T18:31:33.983040,14.21512296,.0001785,98.6645,228.3649,128.7330,231.4007,0,U,43689,999,39491,.60255E-4,.88E-6,0
GEO-KOMPSAT-2A,2018-100A,2026-06-17T20:25:21.565920,1.00269506,.000181,0.0511,159.8127,288.0823,252.8033,0,U,43823,999,2763,0,-.349E-5,0
METEOR-M2 2,2019-038A,2026-06-17T19:21:33.862752,14.24365985,.0002055,98.9140,156.1012,47.0713,313.0638,0,U,44387,999,36138,.47124E-4,.63E-6,0
ARKTIKA-M 1,2021-016A,2026-06-17T11:46:36.471360,2.00622504,.72885287,63.2922,57.5948,269.9420,14.6012,0,U,47719,999,3879,0,-.21E-5,0
FENGYUN 3E,2021-062A,2026-06-17T20:03:41.656320,14.19904762,.0002836,98.7487,172.2365,85.1427,275.0073,0,U,49008,999,25667,.71054E-4,.107E-5,0
GOES 18,2022-021A,2026-06-17T19:09:18.798336,1.00270613,.0000321,0.0198,176.3163,336.8447,263.2028,0,U,51850,999,659,0,.91E-6,0
NOAA 21 (JPSS-2),2022-150A,2026-06-17T19:25:46.365024,14.19565527,.0001707,98.7059,107.5884,152.4473,207.6794,0,U,54234,999,18663,.36059E-4,.33E-6,0
METEOSAT-12 (MTG-I1),2022-170C,2026-06-17T19:48:42.399072,1.00272787,.0003195,0.7394,23.1170,71.1853,108.5395,0,U,54743,999,1298,0,-.14E-6,0
TIANMU-1 03,2023-039A,2026-06-17T19:49:46.528608,15.47300177,.0004181,97.5233,342.8198,97.1155,263.0570,0,U,55973,999,18093,.25948E-3,.13149E-3,0
TIANMU-1 04,2023-039B,2026-06-17T19:34:15.989376,15.47898586,.0004846,97.5169,341.9624,94.2333,265.9471,0,U,55974,999,18094,.25886E-3,.13395E-3,0
TIANMU-1 05,2023-039C,2026-06-17T19:22:07.087872,15.47226423,.0003992,97.5216,342.4144,113.6342,246.5327,0,U,55975,999,18091,.24344E-3,.12297E-3,0
TIANMU-1 06,2023-039D,2026-06-17T19:39:11.259648,15.47802123,.0004377,97.5221,343.0633,109.2462,250.9261,0,U,55976,999,18094,.25186E-3,.12985E-3,0
FENGYUN 3G,2023-055A,2026-06-17T21:05:25.587168,15.52656975,.0007006,49.9937,342.4568,299.2797,60.7469,0,U,56232,999,18011,.33801E-3,.20848E-3,0
METEOR-M2 3,2023-091A,2026-06-17T20:54:45.229248,14.24046768,.0004342,98.6099,223.8356,153.9499,206.1899,0,U,57166,999,15461,-.23177E-4,-.96E-6,0
TIANMU-1 07,2023-101A,2026-06-17T19:40:17.245920,15.29814247,.0004126,97.2587,219.4735,120.1234,240.0417,0,U,57399,999,16174,.18427E-3,.5247E-4,0
TIANMU-1 08,2023-101B,2026-06-17T20:26:26.344320,15.29819087,.0005599,97.2576,219.2754,113.3974,246.7857,0,U,57400,999,16174,.17775E-3,.5061E-4,0
TIANMU-1 09,2023-101C,2026-06-17T20:02:32.218368,15.29850396,.0004613,97.2534,218.6746,125.1320,235.0353,0,U,57401,999,16174,.18609E-3,.5306E-4,0
TIANMU-1 10,2023-101D,2026-06-17T20:50:08.867616,15.29822240,.0006189,97.2613,219.7581,124.4303,235.7524,0,U,57402,999,16174,.18779E-3,.5352E-4,0
FENGYUN 3F,2023-111A,2026-06-17T19:40:30.891072,14.19939181,.0001593,98.6836,238.8167,93.0200,267.1158,0,U,57490,999,14895,.35184E-4,.31E-6,0
ARKTIKA-M 2,2023-198A,2026-06-09T18:48:45.592992,2.00606537,.69004015,63.2205,155.1874,267.4353,18.7899,0,U,58584,999,1817,0,.212E-5,0
TIANMU-1 11,2023-205A,2026-06-17T20:09:24.330816,15.27001493,.0008877,97.3442,190.3865,14.9344,345.2155,0,U,58645,999,13762,.16849E-3,.4396E-4,0
TIANMU-1 12,2023-205B,2026-06-17T19:26:45.206016,15.26966062,.0006648,97.3431,190.1130,1.5794,358.5465,0,U,58646,999,13760,.18014E-3,.4698E-4,0
TIANMU-1 13,2023-205C,2026-06-17T20:13:10.800768,15.26819750,.0005836,97.3458,190.4174,338.8994,21.2003,0,U,58647,999,13760,.1749E-3,.4538E-4,0
TIANMU-1 14,2023-205D,2026-06-17T19:51:50.986944,15.26864387,.00068,97.3394,189.5841,343.1560,16.9452,0,U,58648,999,13760,.17609E-3,.4577E-4,0
TIANMU-1 19,2023-208A,2026-06-17T19:25:53.040288,15.31582033,.0003773,97.4511,285.1122,325.6390,34.4607,0,U,58660,999,13742,.22261E-3,.6711E-4,0
TIANMU-1 20,2023-208B,2026-06-17T20:19:36.777216,15.32773136,.0005964,97.4452,285.7858,331.1416,28.9496,0,U,58661,999,13752,.20942E-3,.6551E-4,0
